FLOCK 4X-13             
1 51028U 22002AW  22278.77555230  .00012499  00000+0  63607-3 0  9996
2 51028  97.4732 344.3658 0013480  47.0401 313.1960 15.16882724 40141
FLOCK 4X-39             
1 51029U 22002AX  22278.43948822  .00010760  00000+0  54870-3 0  9994
2 51029  97.4743 344.0516 0013150  45.6265 314.6043 15.16851692 40092
FLOCK 4X-17             
1 51035U 22002BD  22279.16822493  .00011773  00000+0  60050-3 0  9999
2 51035  97.4772 344.7389 0009548  56.3653 303.8489 15.16854082 40193
FLOCK 4X-10             
1 51037U 22002BF  22278.74746608  .00009575  00000+0  48933-3 0  9990
2 51037  97.4791 344.4334 0012167  53.3620 306.8730 15.16819237 40134
FLOCK 4X-36             
1 51039U 22002BH  22278.15696927  .00033360  00000+0  16915-2 0  9998
2 51039  97.4783 343.8372 0010766  56.2693 303.9565 15.16822813 40045
FLOCK 4X-21             
1 51040U 22002BJ  22279.15715385  .00021950  00000+0  11152-2 0  9991
2 51040  97.4768 344.7142 0009525  52.9019 307.3084 15.16853182 40194
FLOCK 4X-31             
1 51041U 22002BK  22279.09400763  .00003568  00000+0  18443-3 0  9992
2 51041  97.4725 344.5274 0009783  50.0488 310.1603 15.16877798 40184
FLOCK 4X-34             
1 51042U 22002BL  22278.82907917  .00025175  00000+0  12770-2 0  9990
2 51042  97.4791 344.4660 0010168  58.2189 302.0034 15.16874765 40148
FLOCK 4X-6              
1 51043U 22002BM  22279.09592388  .00024773  00000+0  12574-2 0  9998
2 51043  97.4793 344.6628 0010575  47.1700 313.0420 15.16853219 40181
FLOCK 4X-28             
1 51045U 22002BP  22278.16586340  .00009811  00000+0  50187-3 0  9997
2 51045  97.4743 343.6569 0010090  48.9456 311.2647 15.16796886 40042
FLOCK 4X-19             
1 51046U 22002BQ  22278.75839244  .00009660  00000+0  49402-3 0  9997
2 51046  97.4779 344.3748 0010114  56.2844 303.9352 15.16811208 40136
FLOCK 4X-9              
1 51047U 22002BR  22278.75534348  .00009426  00000+0  48109-3 0  9998
2 51047  97.4784 344.4022 0010724  57.1604 303.0660 15.16882956 40131
FLOCK 4X-35             
1 51048U 22002BS  22278.75310044  .00023488  00000+0  11923-2 0  9991
2 51048  97.4719 344.1764 0009911  51.1596 309.0521 15.16866665 40131
FLOCK 4X-11             
1 51049U 22002BT  22278.17360244  .00029025  00000+0  14737-2 0  9994
2 51049  97.4733 343.6091 0009836  57.3994 302.8187 15.16814611 40044
FLOCK 4X-40             
1 51052U 22002BW  22279.49598964  .00016045  00000+0  81629-3 0  9999
2 51052  97.4744 344.9038 0009889  57.0844 303.1756 15.16869282 40246
FLOCK 4X-24             
1 51056U 22002CA  22278.77353023  .00018087  00000+0  91971-3 0  9997
2 51056  97.4740 344.2122 0009340  51.1000 309.1065 15.16866064 40136
FLOCK 4X-4              
1 51064U 22002CJ  22279.14440517  .00019262  00000+0  97807-3 0  9993
2 51064  97.4727 344.6350 0010763  42.7471 317.4908 15.16890220 40191
FLOCK 4X-7              
1 51065U 22002CK  22278.75677228  .00022868  00000+0  11602-2 0  9995
2 51065  97.4766 344.3490 0010161  54.2618 305.9559 15.16889056 40133
FLOCK 4X-14             
1 51066U 22002CL  22278.42246163  .00010466  00000+0  53464-3 0  9994
2 51066  97.4768 344.1304 0011525  69.1320 291.1146 15.16816641 40080
